{
  "norad_id": 61930,
  "name": "STARLINK-32567",
  "history": [
    {
      "epoch": "2026-03-28T12:55:13.301760Z",
      "apogee_km": 483.704913644784,
      "perigee_km": 482.20631379609586,
      "latitude_deg": 3.6780221249965533e-06,
      "longitude_deg": 152.1468237409527,
      "height_km": 482.6163733543322,
      "semi_major_axis_km": 6861.09261372044,
      "eccentricity": 0.00010921,
      "inclination_deg": 43.0004,
      "raan_deg": 171.9096,
      "arg_perigee_deg": 278.8847,
      "mean_anomaly_deg": 81.1881,
      "mean_motion_rev_day": 15.2761122
    }
  ]
}