{"fetched_at":"2026-03-29T16:36:15Z","count":15609,"tles":[{"name":"STARLINK-32567","line1":"1 61930U 24207U   26087.53834840  .00030937  00000+0  11280-2 0  9997","line2":"2 61930  43.0004 171.9096 0001092 278.8847  81.1881 15.27611220 78235","category":"Starlink"}]}